satname,norad_id,inclination_deg,eccentricity,mean_motion_rev_per_day,perigee_km,apogee_km,l1,l2
STARLINK-1190,45083,53.0277,0.0003454,16.31542428,186.12986667206224,190.66602901403257,1 45083U 20006AR  25329.52688448  .04146975  12126-4  76347-3 0  9996,2 45083  53.0277 307.4008 0003454 264.9945  95.0703 16.31542428321975
STARLINK-1185,45087,53.0569,0.0001323,15.06396799,546.3051436474616,548.1375934717817,1 45087U 20006AV  25329.77804773  .00002785  00000+0  20583-3 0  9998,2 45087  53.0569 353.0963 0001323  98.2478 261.8661 15.06396799321360
STARLINK-1183,45088,53.0555,0.0001528,15.06403263,546.1433655997271,548.2597490628477,1 45088U 20006AW  25329.80016558  .00004761  00000+0  33830-3 0  9994,2 45088  53.0555 352.9975 0001528  91.6814 268.4350 15.06403263321368
STARLINK-1142,45093,53.03,0.0008442,15.73792879,342.39011724630654,353.7466424096074,1 45093U 20006BB  25329.91670139  .00338405  00000+0  22581-2 0  9998,2 45093  53.0300 274.6983 0008442 104.7420 304.3036 15.73792879  6002
STARLINK-1152,45096,53.0456,0.0004099,15.26423949,483.6990931865894,489.32673318541856,1 45096U 20006BE  25329.29542197  .00074891  00000+0  28219-2 0  9994,2 45096  53.0456 334.1805 0004099 307.0564  53.0058 15.26423949321585
STARLINK-1184,45098,53.0557,0.000154,15.06397096,546.1539532457455,548.2869633428991,1 45098U 20006BG  25329.35048364  .00004010  00000+0  28800-3 0  9993,2 45098  53.0557 355.0177 0001540  84.9778 275.1387 15.06397096321290
STARLINK-1193,45100,53.0552,0.0001499,15.06398504,546.1780325304771,548.2542534027398,1 45100U 20006BJ  25329.47948794  .00002896  00000+0  21324-3 0  9990,2 45100  53.0552 354.4358 0001499  94.7900 265.3260 15.06398504321311
STARLINK-1143,45179,53.0524,0.0006214,15.44260406,429.31930640918927,437.78487361025236,1 45179U 20012B   25329.65985177  .00112075  00000+0  23723-2 0  9994,2 45179  53.0524 110.9335 0006214 139.0552 221.0921 15.44260406319762
STARLINK-1202,45183,53.0535,0.0001351,15.06393848,546.2947958589002,548.1660301338934,1 45183U 20012F   25329.80753376  .00002004  00000+0  15340-3 0  9997,2 45183  53.0535 152.9660 0001351  91.1957 268.9186 15.06393848319184
STARLINK-1216,45185,53.0533,0.0001434,15.06408453,546.1925595637485,548.1787421000072,1 45185U 20012H   25329.80015332  .00001988  00000+0  15229-3 0  9998,2 45185  53.0533 152.9959 0001434  92.8393 267.2760 15.06408453319122
STARLINK-1225,45187,53.0528,0.0001185,15.06405568,546.3738410908754,548.0151446546852,1 45187U 20012K   25329.81859063  .00000382  00000+0  44548-4 0  9992,2 45187  53.0528 152.9130 0001185  89.9909 270.1215 15.06405568319179
STARLINK-1230,45189,53.0537,0.0001376,15.06396587,546.2690889105452,548.1749477123831,1 45189U 20012M   25329.82228542  .00001022  00000+0  87514-4 0  9999,2 45189  53.0537 152.9005 0001376  87.2246 272.8901 15.06396587316403
STARLINK-1234,45190,53.0509,0.000254,15.40207145,443.7642316865249,447.23063797941995,1 45190U 20012N   25329.91670139  .00102036  00000+0  24782-2 0  9997,2 45190  53.0509 103.8367 0002540 261.0746 253.9562 15.40207145  5925
STARLINK-1269,45197,53.0531,0.0001365,15.06384085,546.3150188142381,548.2056522868434,1 45197U 20012V   25329.76699058  .00001868  00000+0  14431-3 0  9990,2 45197  53.0531 153.1470 0001365  90.6903 269.4243 15.06384085319146
STARLINK-1154,45198,53.0522,8.63e-05,15.06405657,546.5965640179984,547.7918761865876,1 45198U 20012W   25329.75777030  .00002040  00000+0  15575-3 0  9990,2 45198  53.0522 133.1865 0000863  55.1921 304.9149 15.06405657319397
STARLINK-1199,45201,53.0538,0.0001386,15.06406916,546.2305111031583,548.1502118477592,1 45201U 20012Z   25329.76883039  .00000359  00000+0  42981-4 0  9996,2 45201  53.0538 133.1382 0001386  98.8961 261.2185 15.06406916319453
STARLINK-1209,45206,53.0534,0.000233,15.33674495,463.2660255641813,466.4548623730698,1 45206U 20012AE  25329.78894785  .00097714  00000+0  29319-2 0  9992,2 45206  53.0534 106.1535 0002330 271.9450  88.1284 15.33674495318882
STARLINK-1210,45207,53.0216,0.0005954,15.62967733,375.06660900156567,383.1131147486858,1 45207U 20012AF  25329.55749720  .00158808  00000+0  16912-2 0  9993,2 45207  53.0216  64.3351 0005954 134.3251 225.8251 15.62967733320404
STARLINK-1231,45212,53.0531,0.0007679,15.13858809,519.1448015480646,529.7457874359452,1 45212U 20012AL  25329.73810534  .00027700  00000+0  15239-2 0  9998,2 45212  53.0531 130.4235 0007679 122.7110 237.4623 15.13858809319440
STARLINK-1271,45217,53.0533,0.000135,15.06399534,546.278063913398,548.1479084096609,1 45217U 20012AR  25329.75408294  .00003300  00000+0  24033-3 0  9994,2 45217  53.0533 133.2033 0001350  92.1570 267.9574 15.06399534319455
STARLINK-1191,45222,53.0542,0.000185,15.06404511,545.9165454819858,548.478919332978,1 45222U 20012AW  25329.69695278  .00001774  00000+0  13796-3 0  9990,2 45222  53.0542 113.4593 0001850 105.5799 254.5394 15.06404511319723
STARLINK-1212,45223,53.0537,0.0001366,15.06408889,546.2383156759215,548.1303134590626,1 45223U 20012AX  25329.71545985  .00003286  00000+0  23935-3 0  9999,2 45223  53.0537 114.0321 0001366  87.5168 272.5977 15.06408889319724
STARLINK-1215,45225,53.0543,0.000172,15.06454753,545.8526218722982,548.2348840513177,1 45225U 20012AZ  25329.67112830  .00016354  00000+0  11126-2 0  9993,2 45225  53.0543 113.5743 0001720  87.1398 272.9788 15.06454753319679
STARLINK-1221,45227,53.0685,0.0004607,15.37766835,449.56758611987607,455.8615327467387,1 45227U 20012BB  25329.48041692  .00018984  00000+0  51324-3 0  9997,2 45227  53.0685  41.8694 0004607  48.2988 311.8408 15.37766835320659
STARLINK-1222,45228,53.0541,0.0002894,15.06492897,544.9227431635863,548.9309701238108,1 45228U 20012BC  25329.63793293  .00022000  00000+0  14875-2 0  9999,2 45228  53.0541 113.7232 0002894 144.9024 215.2156 15.06492897319609
STARLINK-1226,45229,53.0547,0.0001413,15.06411576,546.1975326546071,548.1546261308422,1 45229U 20012BD  25329.66745880  .00000760  00000+0  69909-4 0  9991,2 45229  53.0547 113.5901 0001413  91.4773 268.6378 15.06411576319614
STARLINK-1227,45230,53.0533,0.0001747,15.06412277,545.9640791373977,548.3837827766747,1 45230U 20012BE  25329.73013029  .00004432  00000+0  31613-3 0  9994,2 45230  53.0533 113.3092 0001747 119.8895 240.2268 15.06412277319747
STARLINK-1246,45235,53.0537,0.0001262,15.0640653,546.3175680387503,548.0655209633824,1 45235U 20012BK  25329.81121515  .00001976  00000+0  15150-3 0  9996,2 45235  53.0537 152.9464 0001262  91.0289 269.0845 15.06406530319204
STARLINK-1270,45237,53.0529,0.0001256,15.06396246,546.3532382075291,548.092888655463,1 45237U 20012BM  25329.68220228 -.00000808  00000+0 -35357-4 0  9991,2 45237  53.0529 113.5246 0001256  88.7596 271.3537 15.06396246319728
STARLINK-1279,45360,53.0504,0.0008427,15.38229545,445.58944189024896,457.0998502565408,1 45360U 20019A   25329.82473199  .00077032  00000+0  20032-2 0  9991,2 45360  53.0504 234.9935 0008427  94.9824 265.2141 15.38229545314596
STARLINK-1301,45361,53.0504,0.0007962,15.40987615,437.76210202081074,448.6243883032057,1 45361U 20019B   25329.81081331  .00075637  00000+0  17974-2 0  9994,2 45361  53.0504 244.3246 0007962  88.6263 271.5653 15.40987615314474
STARLINK-1306,45362,53.0454,0.0005779,15.79870795,326.9292923648936,334.6834891359222,1 45362U 20019C   25329.91670139  .00168247  00000+0  87800-3 0  9992,2 45362  53.0454 227.4349 0005779  71.3601 274.4843 15.79870795  6028
STARLINK-1262,45366,53.0552,0.0001388,15.06387916,546.287350385006,548.2098374258749,1 45366U 20019G   25329.26202068 -.00001072  00000+0 -53075-4 0  9998,2 45366  53.0552 275.4083 0001388  85.7687 274.3461 15.06387916313994
STARLINK-1273,45367,53.0549,0.000176,15.06393249,546.0133838704287,548.4511138460266,1 45367U 20019H   25329.28414099  .00001705  00000+0  13333-3 0  9993,2 45367  53.0549 275.3091 0001760 104.7934 255.3250 15.06393249313991
STARLINK-1276,45368,53.055,0.00017,15.06400186,546.0336787171855,548.3882970330633,1 45368U 20019J   25329.58638424  .00004437  00000+0  31656-3 0  9990,2 45368  53.0550 273.9569 0001700  94.7752 265.3432 15.06400186314047
STARLINK-1277,45369,53.0535,0.0001435,15.06391332,546.2443329069174,548.2319155675732,1 45369U 20019K   25329.24735967  .00000768  00000+0  70452-4 0  9995,2 45369  53.0535 276.1058 0001435  92.3528 267.7625 15.06391332313983
STARLINK-1281,45370,53.0556,0.0001747,15.06398783,546.005428825818,548.4251469151995,1 45370U 20019L   25329.57532816  .00003170  00000+0  23163-3 0  9997,2 45370  53.0556 274.0091 0001747  90.9519 269.1670 15.06398783314043
STARLINK-1300,45374,53.0548,0.0002431,15.06393363,545.5483422825992,548.9154566415191,1 45374U 20019Q   25329.26571684  .00003495  00000+0  25346-3 0  9998,2 45374  53.0548 275.3934 0002431  94.2666 265.8601 15.06393363313998
STARLINK-1302,45375,53.0551,0.0001905,15.06403278,545.8822343722004,548.5207883450275,1 45375U 20019R   25329.54583557  .00003707  00000+0  26764-3 0  9993,2 45375  53.0551 274.1384 0001905  97.0911 263.0295 15.06403278314030
STARLINK-1304,45376,53.0545,0.0001579,15.06410018,546.087346692083,548.2743620704978,1 45376U 20019S   25329.56426902  .00006968  00000+0  48611-3 0  9993,2 45376  53.0545 274.0550 0001579  85.2871 274.8298 15.06410018314032
STARLINK-1305,45377,53.0519,0.0007409,15.35029595,455.7655982389424,465.899583378603,1 45377U 20019T   25329.91670139  .00040515  00000+0  11790-2 0  9999,2 45377  53.0519 265.4141 0007409  86.4295 265.1865 15.35029595  5864
STARLINK-1319,45379,53.0529,0.0006152,15.39748262,442.6543746156967,451.05184244523207,1 45379U 20019V   25329.91670139  .00049367  00000+0  12303-2 0  9996,2 45379  53.0529 266.9985 0006152  93.6976 204.2935 15.39748262  5853
STARLINK-1266,45383,53.0534,0.0001855,15.0641641,545.876621280323,548.4459069363065,1 45383U 20019Z   25329.51819586  .00015211  00000+0  10374-2 0  9995,2 45383  53.0534 254.2655 0001855  90.7631 269.3570 15.06416410314300
